[{"OBJECT_NAME":"PULSAR-0","OBJECT_ID":"2025-135P","EPOCH":"2026-03-09T21:02:58.177536","MEAN_MOTION":15.1958967,"ECCENTRICITY":0.00037333,"INCLINATION":97.4569,"RA_OF_ASC_NODE":184.5909,"ARG_OF_PERICENTER":149.6553,"MEAN_ANOMALY":210.4899,"EPHEMERIS_TYPE":0,"CLASSIFICATION_TYPE":"U","NORAD_CAT_ID":64541,"ELEMENT_SET_NO":999,"REV_AT_EPOCH":3974,"BSTAR":0.00023616879,"MEAN_MOTION_DOT":4.959e-5,"MEAN_MOTION_DDOT":0},{"OBJECT_NAME":"THOR ABLESTAR DEB","OBJECT_ID":"1961-015HM","EPOCH":"2026-03-09T12:53:31.788672","MEAN_MOTION":15.12609006,"ECCENTRICITY":0.0020802,"INCLINATION":66.4912,"RA_OF_ASC_NODE":108.7707,"ARG_OF_PERICENTER":275.236,"MEAN_ANOMALY":209.827,"EPHEMERIS_TYPE":0,"CLASSIFICATION_TYPE":"U","NORAD_CAT_ID":660,"ELEMENT_SET_NO":999,"REV_AT_EPOCH":37032,"BSTAR":0.0020976473,"MEAN_MOTION_DOT":0.00036985,"MEAN_MOTION_DDOT":0}]
